QIANFAN-57              
1 62787U 25016C   25354.45381856  .00000153  00000+0  21863-3 0  9994
2 62787  88.9788 102.4041 0002472 116.0839 244.0567 13.50978732 48246
QIANFAN-58              
1 62788U 25016D   25354.49905926  .00000142  00000+0  20116-3 0  9997
2 62788  88.9758 102.2288 0012457 325.1194  34.9140 13.50980535 48298
QIANFAN-59              
1 62789U 25016E   25354.44964558  .00000151  00000+0  21477-3 0  9990
2 62789  88.9781 102.3094 0012902 329.4057  30.6341 13.50982103 48289
QIANFAN-60              
1 62790U 25016F   25354.40861763  .00000051  00000+0  60911-4 0  9998
2 62790  88.9762 102.2836 0014307 325.1641  34.8572 13.50985571 48268
QIANFAN-61              
1 62791U 25016G   25354.44142447  .00000135  00000+0  19040-3 0  9993
2 62791  88.9829 102.4484 0013286 324.6921  35.3349 13.50982378 48286
QIANFAN-62              
1 62792U 25016H   25354.44555709  .00000149  00000+0  21234-3 0  9996
2 62792  88.9776 102.3122 0014678 324.6661  35.3516 13.50978969 48279
QIANFAN-63              
1 62793U 25016J   25354.39616825  .00000147  00000+0  20958-3 0  9998
2 62793  88.9783 102.2694 0014844 330.6206  29.4109 13.50985719 48305
QIANFAN-64              
1 62794U 25016K   25354.36323889  .00000136  00000+0  19236-3 0  9996
2 62794  88.9769 102.2458 0012652 323.6207  36.4083 13.50980715 48294
